[{"OBJECT_NAME":"ONEWEB-0387","OBJECT_ID":"2021-090AL","EPOCH":"2026-04-25T04:26:57.030720","MEAN_MOTION":13.2077107,"ECCENTRICITY":0.0001573,"INCLINATION":87.913,"RA_OF_ASC_NODE":285.0348,"ARG_OF_PERICENTER":104.5404,"MEAN_ANOMALY":255.5904,"EPHEMERIS_TYPE":0,"CLASSIFICATION_TYPE":"U","NORAD_CAT_ID":49313,"ELEMENT_SET_NO":999,"REV_AT_EPOCH":22282,"BSTAR":6.5559e-05,"MEAN_MOTION_DOT":4e-07,"MEAN_MOTION_DDOT":0.0},{"OBJECT_NAME":"ONEWEB-0388","OBJECT_ID":"2021-090AM","EPOCH":"2026-04-25T02:36:25.516224","MEAN_MOTION":13.19724674,"ECCENTRICITY":0.0001851,"INCLINATION":87.9155,"RA_OF_ASC_NODE":315.5557,"ARG_OF_PERICENTER":91.7774,"MEAN_ANOMALY":268.3571,"EPHEMERIS_TYPE":0,"CLASSIFICATION_TYPE":"U","NORAD_CAT_ID":49314,"ELEMENT_SET_NO":999,"REV_AT_EPOCH":21941,"BSTAR":-8.203000000000001e-05,"MEAN_MOTION_DOT":-2e-07,"MEAN_MOTION_DDOT":0.0},{"OBJECT_NAME":"ONEWEB-0389","OBJECT_ID":"2021-132A","EPOCH":"2026-04-25T04:41:11.489568","MEAN_MOTION":13.17648382,"ECCENTRICITY":0.0001714,"INCLINATION":87.9184,"RA_OF_ASC_NODE":16.3974,"ARG_OF_PERICENTER":90.7471,"MEAN_ANOMALY":269.3858,"EPHEMERIS_TYPE":0,"CLASSIFICATION_TYPE":"U","NORAD_CAT_ID":50469,"ELEMENT_SET_NO":999,"REV_AT_EPOCH":21110,"BSTAR":3.2819e-05,"MEAN_MOTION_DOT":2.6e-07,"MEAN_MOTION_DDOT":0.0},{"OBJECT_NAME":"ONEWEB-0390","OBJECT_ID":"2021-132B","EPOCH":"2026-04-25T04:43:36.449760","MEAN_MOTION":13.17647323,"ECCENTRICITY":0.0001648,"INCLINATION":87.9183,"RA_OF_ASC_NODE":16.3975,"ARG_OF_PERICENTER":74.2453,"MEAN_ANOMALY":285.886,"EPHEMERIS_TYPE":0,"CLASSIFICATION_TYPE":"U","NORAD_CAT_ID":50470,"ELEMENT_SET_NO":999,"REV_AT_EPOCH":21110,"BSTAR":0.00023643,"MEAN_MOTION_DOT":1.05e-06,"MEAN_MOTION_DDOT":0.0},{"OBJECT_NAME":"ONEWEB-0391","OBJECT_ID":"2021-132C","EPOCH":"2026-04-25T04:46:02.851104","MEAN_MOTION":13.17648857,"ECCENTRICITY":0.0001245,"INCLINATION":87.9185,"RA_OF_ASC_NODE":16.4068,"ARG_OF_PERICENTER":105.6549,"MEAN_ANOMALY":254.472,"EPHEMERIS_TYPE":0,"CLASSIFICATION_TYPE":"U","NORAD_CAT_ID":50471,"ELEMENT_SET_NO":999,"REV_AT_EPOCH":21110,"BSTAR":-0.00011622000000000001,"MEAN_MOTION_DOT":-3.2e-07,"MEAN_MOTION_DDOT":0.0},{"OBJECT_NAME":"ONEWEB-0392","OBJECT_ID":"2021-132D","EPOCH":"2026-04-25T05:29:47.616576","MEAN_MOTION":13.17649165,"ECCENTRICITY":0.0001614,"INCLINATION":87.919,"RA_OF_ASC_NODE":16.3651,"ARG_OF_PERICENTER":92.3346,"MEAN_ANOMALY":267.797,"EPHEMERIS_TYPE":0,"CLASSIFICATION_TYPE":"U","NORAD_CAT_ID":50472,"ELEMENT_SET_NO":999,"REV_AT_EPOCH":21114,"BSTAR":0.00012681000000000001,"MEAN_MOTION_DOT":6.2e-07,"MEAN_MOTION_DDOT":0.0},{"OBJECT_NAME":"ONEWEB-0393","OBJECT_ID":"2021-132E","EPOCH":"2026-04-25T04:54:33.878592","MEAN_MOTION":13.17651721,"ECCENTRICITY":0.0001713,"INCLINATION":87.9184,"RA_OF_ASC_NODE":16.3911,"ARG_OF_PERICENTER":84.5523,"MEAN_ANOMALY":275.5804,"EPHEMERIS_TYPE":0,"CLASSIFICATION_TYPE":"U","NORAD_CAT_ID":50473,"ELEMENT_SET_NO":999,"REV_AT_EPOCH":21113,"BSTAR":4.6231000000000005e-05,"MEAN_MOTION_DOT":3.1e-07,"MEAN_MOTION_DDOT":0.0},{"OBJECT_NAME":"ONEWEB-0394","OBJECT_ID":"2021-132F","EPOCH":"2026-04-25T03:16:01.335648","MEAN_MOTION":13.18642665,"ECCENTRICITY":0.000172,"INCLINATION":87.9208,"RA_OF_ASC_NODE":345.9929,"ARG_OF_PERICENTER":91.8556,"MEAN_ANOMALY":268.2773,"EPHEMERIS_TYPE":0,"CLASSIFICATION_TYPE":"U","NORAD_CAT_ID":50474,"ELEMENT_SET_NO":999,"REV_AT_EPOCH":21460,"BSTAR":0.0038134,"MEAN_MOTION_DOT":1.516e-05,"MEAN_MOTION_DDOT":0.0},{"OBJECT_NAME":"ONEWEB-0395","OBJECT_ID":"2021-132G","EPOCH":"2026-04-25T05:12:35.743968","MEAN_MOTION":13.11418696,"ECCENTRICITY":0.0001648,"INCLINATION":87.8917,"RA_OF_ASC_NODE":31.6008,"ARG_OF_PERICENTER":79.6374,"MEAN_ANOMALY":280.494,"EPHEMERIS_TYPE":0,"CLASSIFICATION_TYPE":"U","NORAD_CAT_ID":50475,"ELEMENT_SET_NO":999,"REV_AT_EPOCH":20877,"BSTAR":0.0017044999999999999,"MEAN_MOTION_DOT":6.17e-06,"MEAN_MOTION_DDOT":0.0},{"OBJECT_NAME":"ONEWEB-0396","OBJECT_ID":"2021-132H","EPOCH":"2026-04-25T03:06:26.411904","MEAN_MOTION":13.18673353,"ECCENTRICITY":0.0001761,"INCLINATION":87.9207,"RA_OF_ASC_NODE":346.007,"ARG_OF_PERICENTER":87.864,"MEAN_ANOMALY":272.2694,"EPHEMERIS_TYPE":0,"CLASSIFICATION_TYPE":"U","NORAD_CAT_ID":50476,"ELEMENT_SET_NO":999,"REV_AT_EPOCH":21464,"BSTAR":-0.0015034,"MEAN_MOTION_DOT":-5.8e-06,"MEAN_MOTION_DDOT":0.0},{"OBJECT_NAME":"ONEWEB-0397","OBJECT_ID":"2021-132J","EPOCH":"2026-04-25T03:27:57.289248","MEAN_MOTION":13.18625501,"ECCENTRICITY":0.000189,"INCLINATION":87.9208,"RA_OF_ASC_NODE":346.0041,"ARG_OF_PERICENTER":89.4738,"MEAN_ANOMALY":270.6611,"EPHEMERIS_TYPE":0,"CLASSIFICATION_TYPE":"U","NORAD_CAT_ID":50477,"ELEMENT_SET_NO":999,"REV_AT_EPOCH":21462,"BSTAR":-6.0354e-05,"MEAN_MOTION_DOT":-1.1e-07,"MEAN_MOTION_DDOT":0.0},{"OBJECT_NAME":"ONEWEB-0398","OBJECT_ID":"2021-132K","EPOCH":"2026-04-25T06:16:03.730656","MEAN_MOTION":13.11420089,"ECCENTRICITY":0.0001634,"INCLINATION":87.893,"RA_OF_ASC_NODE":31.577,"ARG_OF_PERICENTER":71.8342,"MEAN_ANOMALY":288.2964,"EPHEMERIS_TYPE":0,"CLASSIFICATION_TYPE":"U","NORAD_CAT_ID":50478,"ELEMENT_SET_NO":999,"REV_AT_EPOCH":20867,"BSTAR":-0.0011627,"MEAN_MOTION_DOT":-3.99e-06,"MEAN_MOTION_DDOT":0.0},{"OBJECT_NAME":"ONEWEB-0399","OBJECT_ID":"2021-132L","EPOCH":"2026-04-25T05:56:32.212320","MEAN_MOTION":13.11416086,"ECCENTRICITY":0.0001872,"INCLINATION":87.8931,"RA_OF_ASC_NODE":31.5898,"ARG_OF_PERICENTER":94.4477,"MEAN_ANOMALY":265.6865,"EPHEMERIS_TYPE":0,"CLASSIFICATION_TYPE":"U","NORAD_CAT_ID":50479,"ELEMENT_SET_NO":999,"REV_AT_EPOCH":20866,"BSTAR":-0.0011768000000000002,"MEAN_MOTION_DOT":-4.04e-06,"MEAN_MOTION_DDOT":0.0},{"OBJECT_NAME":"ONEWEB-0400","OBJECT_ID":"2021-132M","EPOCH":"2026-04-25T02:56:54.957120","MEAN_MOTION":13.18685876,"ECCENTRICITY":0.0001625,"INCLINATION":87.9208,"RA_OF_ASC_NODE":345.9973,"ARG_OF_PERICENTER":77.9068,"MEAN_ANOMALY":282.2246,"EPHEMERIS_TYPE":0,"CLASSIFICATION_TYPE":"U","NORAD_CAT_ID":50480,"ELEMENT_SET_NO":999,"REV_AT_EPOCH":21461,"BSTAR":7.7709e-05,"MEAN_MOTION_DOT":4.4e-07,"MEAN_MOTION_DDOT":0.0},{"OBJECT_NAME":"ONEWEB-0401","OBJECT_ID":"2021-132N","EPOCH":"2026-04-25T02:12:08.342208","MEAN_MOTION":13.1858466,"ECCENTRICITY":0.0002105,"INCLINATION":87.9208,"RA_OF_ASC_NODE":346.0012,"ARG_OF_PERICENTER":86.73,"MEAN_ANOMALY":273.4073,"EPHEMERIS_TYPE":0,"CLASSIFICATION_TYPE":"U","NORAD_CAT_ID":50481,"ELEMENT_SET_NO":999,"REV_AT_EPOCH":21461,"BSTAR":-0.018439,"MEAN_MOTION_DOT":-7.24e-05,"MEAN_MOTION_DDOT":0.0},{"OBJECT_NAME":"ONEWEB-0402","OBJECT_ID":"2021-132P","EPOCH":"2026-04-25T03:08:50.228160","MEAN_MOTION":13.18667437,"ECCENTRICITY":0.0002359,"INCLINATION":87.9207,"RA_OF_ASC_NODE":345.984,"ARG_OF_PERICENTER":86.2926,"MEAN_ANOMALY":273.8476,"EPHEMERIS_TYPE":0,"CLASSIFICATION_TYPE":"U","NORAD_CAT_ID":50482,"ELEMENT_SET_NO":999,"REV_AT_EPOCH":21464,"BSTAR":-0.0024059,"MEAN_MOTION_DOT":-9.35e-06,"MEAN_MOTION_DDOT":0.0}]