ONEWEB-0387             
1 49313U 21090AL  26115.18538230  .00000040  00000+0  65559-4 0  9994
2 49313  87.9130 285.0348 0001573 104.5404 255.5904 13.20771070222828
ONEWEB-0388             
1 49314U 21090AM  26115.10862866 -.00000020  00000+0 -82030-4 0  9995
2 49314  87.9155 315.5557 0001851  91.7774 268.3571 13.19724674219412
ONEWEB-0389             
1 50469U 21132A   26115.19527187  .00000026  00000+0  32819-4 0  9992
2 50469  87.9184  16.3974 0001714  90.7471 269.3858 13.17648382211103
ONEWEB-0390             
1 50470U 21132B   26115.19694965  .00000105  00000+0  23643-3 0  9995
2 50470  87.9183  16.3975 0001648  74.2453 285.8860 13.17647323211108
ONEWEB-0391             
1 50471U 21132C   26115.19864411 -.00000032  00000+0 -11622-3 0  9996
2 50471  87.9185  16.4068 0001245 105.6549 254.4720 13.17648857211103
ONEWEB-0392             
1 50472U 21132D   26115.22902334  .00000062  00000+0  12681-3 0  9995
2 50472  87.9190  16.3651 0001614  92.3346 267.7970 13.17649165211145
ONEWEB-0393             
1 50473U 21132E   26115.20455878  .00000031  00000+0  46231-4 0  9995
2 50473  87.9184  16.3911 0001713  84.5523 275.5804 13.17651721211131
ONEWEB-0394             
1 50474U 21132F   26115.13612657  .00001516  00000+0  38134-2 0  9998
2 50474  87.9208 345.9929 0001720  91.8556 268.2773 13.18642665214601
ONEWEB-0395             
1 50475U 21132G   26115.21708037  .00000617  00000+0  17045-2 0  9995
2 50475  87.8917  31.6008 0001648  79.6374 280.4940 13.11418696208777
ONEWEB-0396             
1 50476U 21132H   26115.12947236 -.00000580  00000+0 -15034-2 0  9999
2 50476  87.9207 346.0070 0001761  87.8640 272.2694 13.18673353214644
ONEWEB-0397             
1 50477U 21132J   26115.14441307 -.00000011  00000+0 -60354-4 0  9996
2 50477  87.9208 346.0041 0001890  89.4738 270.6611 13.18625501214624
ONEWEB-0398             
1 50478U 21132K   26115.26115429 -.00000399  00000+0 -11627-2 0  9999
2 50478  87.8930  31.5770 0001634  71.8342 288.2964 13.11420089208674
ONEWEB-0399             
1 50479U 21132L   26115.24759505 -.00000404  00000+0 -11768-2 0  9990
2 50479  87.8931  31.5898 0001872  94.4477 265.6865 13.11416086208661
ONEWEB-0400             
1 50480U 21132M   26115.12285830  .00000044  00000+0  77709-4 0  9991
2 50480  87.9208 345.9973 0001625  77.9068 282.2246 13.18685876214617
ONEWEB-0401             
1 50481U 21132N   26115.09176322 -.00007240  00000+0 -18439-1 0  9992
2 50481  87.9208 346.0012 0002105  86.7300 273.4073 13.18584660214614
ONEWEB-0402             
1 50482U 21132P   26115.13113690 -.00000935  00000+0 -24059-2 0  9997
2 50482  87.9207 345.9840 0002359  86.2926 273.8476 13.18667437214649
